{"fetched_at":"2026-03-29T02:12:04Z","count":15717,"tles":[{"name":"USA 115 (MILSTAR-1 2)","line1":"1 23712U 95060A   26087.39072573 -.00000033  00000+0  00000+0 0  9999","line2":"2 23712  14.0449   4.3498 0003886 348.9027 213.2109  1.00274213 32075","category":"Military"}]}